{"fetched_at":"2026-07-11T06:35:49.373Z","source":"https://celestrak.org/NORAD/elements/gp.php?NAME=SPOT&FORMAT=JSON","constellation":"spot","records":[{"OBJECT_NAME":"SPOT 6","OBJECT_ID":"2012-047A","EPOCH":"2026-07-10T20:46:28.776576","CLASSIFICATION_TYPE":"U","MEAN_MOTION":14.58536957,"ECCENTRICITY":0.0001144,"INCLINATION":98.211,"RA_OF_ASC_NODE":258.8962,"ARG_OF_PERICENTER":82.199,"MEAN_ANOMALY":277.9339,"EPHEMERIS_TYPE":0,"NORAD_CAT_ID":38755,"ELEMENT_SET_NO":999,"REV_AT_EPOCH":73650,"BSTAR":0.0000099537,"MEAN_MOTION_DOT":0,"MEAN_MOTION_DDOT":0},{"OBJECT_NAME":"SPOT 7","OBJECT_ID":"2014-034A","EPOCH":"2026-07-10T19:26:35.206080","CLASSIFICATION_TYPE":"U","MEAN_MOTION":14.60978069,"ECCENTRICITY":0.0001551,"INCLINATION":98.062,"RA_OF_ASC_NODE":253.692,"ARG_OF_PERICENTER":96.4979,"MEAN_ANOMALY":263.6399,"EPHEMERIS_TYPE":0,"NORAD_CAT_ID":40053,"ELEMENT_SET_NO":999,"REV_AT_EPOCH":64058,"BSTAR":0.000023187,"MEAN_MOTION_DOT":6.8e-7,"MEAN_MOTION_DDOT":0}]}
